[{"OBJECT_NAME":"STARLINK-3582","OBJECT_ID":"2022-022X","EPOCH":"2026-03-09T22:56:15.036576","MEAN_MOTION":15.17112073,"ECCENTRICITY":0.00019498,"INCLINATION":53.2143,"RA_OF_ASC_NODE":3.953,"ARG_OF_PERICENTER":143.0365,"MEAN_ANOMALY":217.0766,"EPHEMERIS_TYPE":0,"CLASSIFICATION_TYPE":"U","NORAD_CAT_ID":51873,"ELEMENT_SET_NO":999,"REV_AT_EPOCH":22321,"BSTAR":0.0018716326,"MEAN_MOTION_DOT":0.00037432,"MEAN_MOTION_DDOT":0},{"OBJECT_NAME":"CSC-2","OBJECT_ID":"2023-155F","EPOCH":"2026-03-09T18:52:09.760512","MEAN_MOTION":15.19850023,"ECCENTRICITY":0.00046278,"INCLINATION":97.5491,"RA_OF_ASC_NODE":145.3107,"ARG_OF_PERICENTER":207.4869,"MEAN_ANOMALY":152.6121,"EPHEMERIS_TYPE":0,"CLASSIFICATION_TYPE":"U","NORAD_CAT_ID":58021,"ELEMENT_SET_NO":999,"REV_AT_EPOCH":13307,"BSTAR":0.00057636631,"MEAN_MOTION_DOT":0.00012305,"MEAN_MOTION_DDOT":0}]
